0 COSMOS 1275 DEB
1 12692U 81053AL  13282.50644700  .00001007  00000-0  43430-3 0   872
2 12692 082.9040 194.4564 0079833 033.6496 326.9718 14.21939213657839
0 COSMOS 1275 DEB
1 12692U 81053AL  13287.15068478  .00001088  00000-0  47034-3 0   895
2 12692 082.9039 190.7160 0079513 019.8253 340.5988 14.21947238658490
0 COSMOS 1275 DEB
1 12692U 81053AL  13289.47278923  .00001080  00000-0  46672-3 0   901
2 12692 082.9036 188.8459 0079330 012.9020 347.4166 14.21956115658824
0 COSMOS 1275 DEB
1 12692U 81053AL  13291.65414762  .00001181  00000-0  51126-3 0   910
2 12692 082.9032 187.0891 0079158 006.3241 353.8920 14.21960875659133
0 COSMOS 1275 DEB
1 12692U 81053AL  13293.76513196  .00001284  00000-0  55636-3 0   920
2 12692 082.9030 185.3888 0078968 000.0009 000.1159 14.21965721659433
0 COSMOS 1275 DEB
1 12692U 81053AL  13296.15757245  .00001243  00000-0  53838-3 0   939
2 12692 082.9030 183.4618 0078752 352.8076 007.1968 14.21973546659772
